start=new Date('2023-02-05T00:00:00.000Z').valueOf();
sats=[{"REV_AT_EPOCH":"3254","CENTER_NAME":"EARTH","PERIOD":"95.436","RCS_SIZE":"LARGE","OBJECT_ID":"2022-076AF","MEAN_ELEMENT_THEORY":"SGP4","BSTAR":"0.00014789000000","TIME_SYSTEM":"UTC","NORAD_CAT_ID":"53015","RA_OF_ASC_NODE":"112.4039","TLE_LINE1":"1 53015U 22076AF  23035.69083235  .00002068  00000-0  14789-3 0  9998","GP_ID":"224442511","APOAPSIS":"540.761","LAUNCH_DATE":"2022-07-07","EPHEMERIS_TYPE":"0","ELEMENT_SET_NO":"999","CLASSIFICATION_TYPE":"U","ECCENTRICITY":"0.00015600","MEAN_MOTION_DDOT":"0.0000000000000","OBJECT_TYPE":"PAYLOAD","FILE":"3772514","MEAN_ANOMALY":"263.2251","COUNTRY_CODE":"US","MEAN_MOTION_DOT":"0.00002068","OBJECT_NAME":"STARLINK-4262","SEMIMAJOR_AXIS":"6917.817","SITE":"AFETR","TLE_LINE2":"2 53015  53.2148 112.4039 0001560  96.8919 263.2251 15.08860902 32547","MEAN_MOTION":"15.08860902","DECAY_DATE":null,"PERIAPSIS":"538.602","ARG_OF_PERICENTER":"96.8919","REF_FRAME":"TEME","INCLINATION":"53.2148","EPOCH":"2023-02-04T16:34:47.915040"},{"PERIOD":"95.438","OBJECT_ID":"2022-076AG","RCS_SIZE":"LARGE","REV_AT_EPOCH":"3257","CENTER_NAME":"EARTH","NORAD_CAT_ID":"53016","GP_ID":"224441778","TLE_LINE1":"1 53016U 22076AG  23035.90060230  .00001042  00000-0  83558-4 0  9995","RA_OF_ASC_NODE":"111.4534","APOAPSIS":"540.528","LAUNCH_DATE":"2022-07-07","ELEMENT_SET_NO":"999","EPHEMERIS_TYPE":"0","CLASSIFICATION_TYPE":"U","MEAN_ELEMENT_THEORY":"SGP4","TIME_SYSTEM":"UTC","BSTAR":"0.00008355800000","MEAN_ANOMALY":"272.9242","FILE":"3772514","MEAN_MOTION_DOT":"0.00001042","COUNTRY_CODE":"US","ECCENTRICITY":"0.00011320","MEAN_MOTION_DDOT":"0.0000000000000","OBJECT_TYPE":"PAYLOAD","TLE_LINE2":"2 53016  53.2143 111.4534 0001132  87.1880 272.9242 15.08840159 32579","MEAN_MOTION":"15.08840159","DECAY_DATE":null,"PERIAPSIS":"538.962","ARG_OF_PERICENTER":"87.1880","INCLINATION":"53.2143","REF_FRAME":"TEME","EPOCH":"2023-02-04T21:36:52.038720","SEMIMAJOR_AXIS":"6917.880","OBJECT_NAME":"STARLINK-4283","SITE":"AFETR"},{"REV_AT_EPOCH":"3252","CENTER_NAME":"EARTH","PERIOD":"95.437","RCS_SIZE":"LARGE","OBJECT_ID":"2022-076AH","MEAN_ELEMENT_THEORY":"SGP4","BSTAR":"0.00013852000000","TIME_SYSTEM":"UTC","NORAD_CAT_ID":"53017","RA_OF_ASC_NODE":"113.3067","TLE_LINE1":"1 53017U 22076AH  23035.48843913  .00001918  00000-0  13852-3 0  9997","GP_ID":"224403863","APOAPSIS":"540.620","LAUNCH_DATE":"2022-07-07","ELEMENT_SET_NO":"999","CLASSIFICATION_TYPE":"U","EPHEMERIS_TYPE":"0","ECCENTRICITY":"0.00012970","MEAN_MOTION_DDOT":"0.0000000000000","OBJECT_TYPE":"PAYLOAD","FILE":"3771952","MEAN_ANOMALY":"279.9268","MEAN_MOTION_DOT":"0.00001918","COUNTRY_CODE":"US","OBJECT_NAME":"STARLINK-4281","SEMIMAJOR_AXIS":"6917.858","SITE":"AFETR","TLE_LINE2":"2 53017  53.2166 113.3067 0001297  80.1870 279.9268 15.08847251 32521","MEAN_MOTION":"15.08847251","DECAY_DATE":null,"PERIAPSIS":"538.826","REF_FRAME":"TEME","INCLINATION":"53.2166","ARG_OF_PERICENTER":"80.1870","EPOCH":"2023-02-04T11:43:21.140832"},{"BSTAR":"0.00003661300000","TIME_SYSTEM":"UTC","MEAN_ELEMENT_THEORY":"SGP4","ELEMENT_SET_NO":"999","EPHEMERIS_TYPE":"0","CLASSIFICATION_TYPE":"U","APOAPSIS":"540.652","LAUNCH_DATE":"2022-07-07","RA_OF_ASC_NODE":"111.4655","TLE_LINE1":"1 53018U 22076AJ  23035.89787879  .00000295  00000-0  36613-4 0  9999","GP_ID":"224442276","NORAD_CAT_ID":"53018","CENTER_NAME":"EARTH","REV_AT_EPOCH":"3257","RCS_SIZE":"LARGE","OBJECT_ID":"2022-076AJ","PERIOD":"95.437","SITE":"AFETR","OBJECT_NAME":"STARLINK-4279","SEMIMAJOR_AXIS":"6917.864","EPOCH":"2023-02-04T21:32:56.727456","PERIAPSIS":"538.806","DECAY_DATE":null,"INCLINATION":"53.2164","REF_FRAME":"TEME","ARG_OF_PERICENTER":"81.6013","TLE_LINE2":"2 53018  53.2164 111.4655 0001334  81.6013 278.5130 15.08845319 32570","MEAN_MOTION":"15.08845319","OBJECT_TYPE":"PAYLOAD","MEAN_MOTION_DDOT":"0.0000000000000","ECCENTRICITY":"0.00013340","MEAN_MOTION_DOT":"0.00000295","COUNTRY_CODE":"US","FILE":"3772514","MEAN_ANOMALY":"278.5130"},{"SITE":"AFETR","SEMIMAJOR_AXIS":"6917.867","OBJECT_NAME":"STARLINK-4282","EPOCH":"2023-02-04T11:32:45.340512","TLE_LINE2":"2 53019  53.2177 113.3414 0001381  83.2833 276.8316 15.08844264 32989","MEAN_MOTION":"15.08844264","DECAY_DATE":null,"INCLINATION":"53.2177","PERIAPSIS":"538.777","ARG_OF_PERICENTER":"83.2833","REF_FRAME":"TEME","MEAN_MOTION_DDOT":"0.0000000000000","OBJECT_TYPE":"PAYLOAD","ECCENTRICITY":"0.00013810","MEAN_ANOMALY":"276.8316","FILE":"3772440","COUNTRY_CODE":"US","MEAN_MOTION_DOT":"0.00001791","MEAN_ELEMENT_THEORY":"SGP4","TIME_SYSTEM":"UTC","BSTAR":"0.00013055000000","APOAPSIS":"540.688","LAUNCH_DATE":"2022-07-07","EPHEMERIS_TYPE":"0","ELEMENT_SET_NO":"999","CLASSIFICATION_TYPE":"U","NORAD_CAT_ID":"53019","TLE_LINE1":"1 53019U 22076AK  23035.48108033  .00001791  00000-0  13055-3 0  9990","GP_ID":"224417544","RA_OF_ASC_NODE":"113.3414","REV_AT_EPOCH":"3298","CENTER_NAME":"EARTH","PERIOD":"95.437","OBJECT_ID":"2022-076AK","RCS_SIZE":"LARGE"},{"REV_AT_EPOCH":"3252","CENTER_NAME":"EARTH","PERIOD":"95.440","RCS_SIZE":"LARGE","OBJECT_ID":"2022-076AL","MEAN_ELEMENT_THEORY":"SGP4","BSTAR":"0.00086773000000","TIME_SYSTEM":"UTC","NORAD_CAT_ID":"53020","RA_OF_ASC_NODE":"112.9750","TLE_LINE1":"1 53020U 22076AL  23035.56205465  .00013536  00000-0  86773-3 0  9995","GP_ID":"224441279","LAUNCH_DATE":"2022-07-07","APOAPSIS":"540.938","ELEMENT_SET_NO":"999","EPHEMERIS_TYPE":"0","CLASSIFICATION_TYPE":"U","ECCENTRICITY":"0.00015680","MEAN_MOTION_DDOT":"0.0000000000000","OBJECT_TYPE":"PAYLOAD","FILE":"3772514","MEAN_ANOMALY":"259.6925","COUNTRY_CODE":"US","MEAN_MOTION_DOT":"0.00013536","OBJECT_NAME":"STARLINK-4287","SEMIMAJOR_AXIS":"6917.988","SITE":"AFETR","MEAN_MOTION":"15.08804869","TLE_LINE2":"2 53020  53.2163 112.9750 0001568 100.4244 259.6925 15.08804869 32521","DECAY_DATE":null,"PERIAPSIS":"538.768","INCLINATION":"53.2163","ARG_OF_PERICENTER":"100.4244","REF_FRAME":"TEME","EPOCH":"2023-02-04T13:29:21.521760"},{"MEAN_MOTION_DDOT":"0.0000000000000","OBJECT_TYPE":"PAYLOAD","ECCENTRICITY":"0.00014000","MEAN_ANOMALY":"274.0005","FILE":"3771952","COUNTRY_CODE":"US","MEAN_MOTION_DOT":"0.00001785","SITE":"AFETR","SEMIMAJOR_AXIS":"6917.870","OBJECT_NAME":"STARLINK-4203","EPOCH":"2023-02-04T11:22:09.879744","TLE_LINE2":"2 53021  53.2174 113.3746 0001400  86.1147 274.0005 15.08843359 32517","MEAN_MOTION":"15.08843359","INCLINATION":"53.2174","DECAY_DATE":null,"PERIAPSIS":"538.767","REF_FRAME":"TEME","ARG_OF_PERICENTER":"86.1147","REV_AT_EPOCH":"3251","CENTER_NAME":"EARTH","PERIOD":"95.437","OBJECT_ID":"2022-076AM","RCS_SIZE":"LARGE","MEAN_ELEMENT_THEORY":"SGP4","TIME_SYSTEM":"UTC","BSTAR":"0.00013019000000","LAUNCH_DATE":"2022-07-07","APOAPSIS":"540.704","ELEMENT_SET_NO":"999","CLASSIFICATION_TYPE":"U","EPHEMERIS_TYPE":"0","NORAD_CAT_ID":"53021","GP_ID":"224403364","TLE_LINE1":"1 53021U 22076AM  23035.47372546  .00001785  00000-0  13019-3 0  9997","RA_OF_ASC_NODE":"113.3746"},{"MEAN_ELEMENT_THEORY":"SGP4","BSTAR":"0.00002546500000","TIME_SYSTEM":"UTC","LAUNCH_DATE":"2022-07-07","APOAPSIS":"540.617","ELEMENT_SET_NO":"999","CLASSIFICATION_TYPE":"U","EPHEMERIS_TYPE":"0","NORAD_CAT_ID":"53022","GP_ID":"224417539","TLE_LINE1":"1 53022U 22076AN  23035.55099823  .00000117  00000-0  25465-4 0  9998","RA_OF_ASC_NODE":"113.0256","CENTER_NAME":"EARTH","REV_AT_EPOCH":"3299","PERIOD":"95.437","RCS_SIZE":"LARGE","OBJECT_ID":"2022-076AN","SITE":"AFETR","OBJECT_NAME":"STARLINK-4216","SEMIMAJOR_AXIS":"6917.857","EPOCH":"2023-02-04T13:13:26.247072","MEAN_MOTION":"15.08847734","TLE_LINE2":"2 53022  53.2168 113.0256 0001294  84.5285 275.5855 15.08847734 32992","DECAY_DATE":null,"PERIAPSIS":"538.827","ARG_OF_PERICENTER":"84.5285","REF_FRAME":"TEME","INCLINATION":"53.2168","MEAN_MOTION_DDOT":"0.0000000000000","OBJECT_TYPE":"PAYLOAD","ECCENTRICITY":"0.00012940","FILE":"3772440","MEAN_ANOMALY":"275.5855","COUNTRY_CODE":"US","MEAN_MOTION_DOT":"0.00000117"},{"BSTAR":"0.00027890000000","TIME_SYSTEM":"UTC","MEAN_ELEMENT_THEORY":"SGP4","ELEMENT_SET_NO":"999","CLASSIFICATION_TYPE":"U","EPHEMERIS_TYPE":"0","LAUNCH_DATE":"2022-07-07","APOAPSIS":"540.559","RA_OF_ASC_NODE":"111.3064","TLE_LINE1":"1 53023U 22076AP  23035.93001916  .00004157  00000-0  27890-3 0  9998","GP_ID":"224417548","NORAD_CAT_ID":"53023","REV_AT_EPOCH":"3305","CENTER_NAME":"EARTH","RCS_SIZE":"LARGE","OBJECT_ID":"2022-076AP","PERIOD":"95.436","SITE":"AFETR","OBJECT_NAME":"STARLINK-4284","SEMIMAJOR_AXIS":"6917.799","EPOCH":"2023-02-04T22:19:13.655424","PERIAPSIS":"538.770","DECAY_DATE":null,"REF_FRAME":"TEME","ARG_OF_PERICENTER":"84.1332","INCLINATION":"53.2203","MEAN_MOTION":"15.08866603","TLE_LINE2":"2 53023  53.2203 111.3064 0001293  84.1332 275.9807 15.08866603 33054","OBJECT_TYPE":"PAYLOAD","MEAN_MOTION_DDOT":"0.0000000000000","ECCENTRICITY":"0.00012930","MEAN_MOTION_DOT":"0.00004157","COUNTRY_CODE":"US","FILE":"3772441","MEAN_ANOMALY":"275.9807"},{"OBJECT_NAME":"STARLINK-4289","SEMIMAJOR_AXIS":"6917.864","SITE":"AFETR","INCLINATION":"53.2186","DECAY_DATE":null,"PERIAPSIS":"538.832","REF_FRAME":"TEME","ARG_OF_PERICENTER":"85.0945","TLE_LINE2":"2 53024  53.2186 113.0844 0001296  85.0945 275.0195 15.08845348 32528","MEAN_MOTION":"15.08845348","EPOCH":"2023-02-04T12:52:14.796768","ECCENTRICITY":"0.00012960","OBJECT_TYPE":"PAYLOAD","MEAN_MOTION_DDOT":"0.0000000000000","COUNTRY_CODE":"US","MEAN_MOTION_DOT":"0.00002574","FILE":"3771952","MEAN_ANOMALY":"275.0195","BSTAR":"0.00017971000000","TIME_SYSTEM":"UTC","MEAN_ELEMENT_THEORY":"SGP4","TLE_LINE1":"1 53024U 22076AQ  23035.53628237  .00002574  00000-0  17971-3 0  9996","GP_ID":"224402614","RA_OF_ASC_NODE":"113.0844","NORAD_CAT_ID":"53024","ELEMENT_SET_NO":"999","CLASSIFICATION_TYPE":"U","EPHEMERIS_TYPE":"0","APOAPSIS":"540.626","LAUNCH_DATE":"2022-07-07","CENTER_NAME":"EARTH","REV_AT_EPOCH":"3252","RCS_SIZE":"LARGE","OBJECT_ID":"2022-076AQ","PERIOD":"95.437"}];
